[{"OBJECT_NAME":"STARLINK-5627","OBJECT_ID":"2023-013AK","EPOCH":"2026-03-09T00:35:16.194336","MEAN_MOTION":15.02532854,"ECCENTRICITY":0.00014899,"INCLINATION":43.0049,"RA_OF_ASC_NODE":303.5755,"ARG_OF_PERICENTER":267.0997,"MEAN_ANOMALY":92.9675,"EPHEMERIS_TYPE":0,"CLASSIFICATION_TYPE":"U","NORAD_CAT_ID":55364,"ELEMENT_SET_NO":999,"REV_AT_EPOCH":17161,"BSTAR":2.9676035e-5,"MEAN_MOTION_DOT":1.97e-6,"MEAN_MOTION_DDOT":0},{"OBJECT_NAME":"CZ-4B DEB","OBJECT_ID":"2020-067G","EPOCH":"2026-03-09T15:23:17.086272","MEAN_MOTION":14.97507509,"ECCENTRICITY":0.0035481,"INCLINATION":97.6356,"RA_OF_ASC_NODE":124.8214,"ARG_OF_PERICENTER":11.4219,"MEAN_ANOMALY":348.7801,"EPHEMERIS_TYPE":0,"CLASSIFICATION_TYPE":"U","NORAD_CAT_ID":46484,"ELEMENT_SET_NO":999,"REV_AT_EPOCH":29505,"BSTAR":0.00058118,"MEAN_MOTION_DOT":6.807e-5,"MEAN_MOTION_DDOT":0}]
